start=new Date('2022-12-09T00:00:00.000Z').valueOf();
sats=[{"APOAPSIS":"541.330","ARG_OF_PERICENTER":"64.8305","TIME_SYSTEM":"UTC","BSTAR":"-0.00001012800000","RCS_SIZE":"LARGE","TLE_LINE2":"2 53608  53.2183 162.4190 0002259  64.8305 295.2921 15.08832920 16457","TLE_LINE1":"1 53608U 22104W   22342.80900200 -.00000449  00000-0 -10128-4 0  9998","REV_AT_EPOCH":"1645","MEAN_MOTION":"15.08832920","DECAY_DATE":null,"CLASSIFICATION_TYPE":"U","ELEMENT_SET_NO":"999","ECCENTRICITY":"0.00022590","OBJECT_NAME":"STARLINK-4647","FILE":"3684925","SITE":"AFETR","OBJECT_ID":"2022-104W","MEAN_MOTION_DDOT":"0.0000000000000","REF_FRAME":"TEME","MEAN_MOTION_DOT":"-0.00000449","GP_ID":"219811837","CENTER_NAME":"EARTH","COUNTRY_CODE":"US","SEMIMAJOR_AXIS":"6917.902","INCLINATION":"53.2183","MEAN_ELEMENT_THEORY":"SGP4","RA_OF_ASC_NODE":"162.4190","PERIOD":"95.438","PERIAPSIS":"538.204","MEAN_ANOMALY":"295.2921","EPOCH":"2022-12-08T19:24:57.772800","LAUNCH_DATE":"2022-08-28","EPHEMERIS_TYPE":"0","OBJECT_TYPE":"PAYLOAD","NORAD_CAT_ID":"53608"},{"SITE":"AFETR","MEAN_MOTION_DDOT":"0.0000000000000","OBJECT_ID":"2022-104X","OBJECT_NAME":"STARLINK-4660","ECCENTRICITY":"0.00018960","ELEMENT_SET_NO":"999","FILE":"3684614","TLE_LINE1":"1 53609U 22104X   22342.24088904 -.00000245  00000-0  27301-5 0  9990","DECAY_DATE":null,"MEAN_MOTION":"15.08838886","CLASSIFICATION_TYPE":"U","REV_AT_EPOCH":"1642","TIME_SYSTEM":"UTC","ARG_OF_PERICENTER":"54.6609","APOAPSIS":"541.060","RCS_SIZE":"LARGE","TLE_LINE2":"2 53609  53.2166 169.5609 0001896  54.6609 305.4560 15.08838886 16429","BSTAR":"0.00000273010000","MEAN_ANOMALY":"305.4560","PERIAPSIS":"538.437","EPOCH":"2022-12-08T05:46:52.813056","NORAD_CAT_ID":"53609","OBJECT_TYPE":"PAYLOAD","EPHEMERIS_TYPE":"0","LAUNCH_DATE":"2022-08-28","CENTER_NAME":"EARTH","PERIOD":"95.438","RA_OF_ASC_NODE":"169.5609","MEAN_ELEMENT_THEORY":"SGP4","INCLINATION":"53.2166","COUNTRY_CODE":"US","SEMIMAJOR_AXIS":"6917.884","GP_ID":"219779037","REF_FRAME":"TEME","MEAN_MOTION_DOT":"-0.00000245"},{"TIME_SYSTEM":"UTC","ARG_OF_PERICENTER":"7.4882","APOAPSIS":"540.877","RCS_SIZE":"LARGE","TLE_LINE2":"2 53610  53.2170 162.3788 0001277   7.4882 352.6129 15.08758848 16454","BSTAR":"-0.00058397000000","TLE_LINE1":"1 53610U 22104Y   22342.80265621 -.00009549  00000-0 -58397-3 0  9991","DECAY_DATE":null,"CLASSIFICATION_TYPE":"U","MEAN_MOTION":"15.08758848","REV_AT_EPOCH":"1645","OBJECT_NAME":"STARLINK-4610","ECCENTRICITY":"0.00012770","ELEMENT_SET_NO":"999","FILE":"3684925","SITE":"AFETR","MEAN_MOTION_DDOT":"0.0000000000000","OBJECT_ID":"2022-104Y","REF_FRAME":"TEME","MEAN_MOTION_DOT":"-0.00009549","GP_ID":"219810805","CENTER_NAME":"EARTH","PERIOD":"95.443","RA_OF_ASC_NODE":"162.3788","MEAN_ELEMENT_THEORY":"SGP4","INCLINATION":"53.2170","COUNTRY_CODE":"US","SEMIMAJOR_AXIS":"6918.128","PERIAPSIS":"539.110","MEAN_ANOMALY":"352.6129","EPOCH":"2022-12-08T19:15:49.496544","OBJECT_TYPE":"PAYLOAD","NORAD_CAT_ID":"53610","EPHEMERIS_TYPE":"0","LAUNCH_DATE":"2022-08-28"},{"SITE":"AFETR","OBJECT_ID":"2022-104Z","MEAN_MOTION_DDOT":"0.0000000000000","ELEMENT_SET_NO":"999","ECCENTRICITY":"0.00018900","OBJECT_NAME":"STARLINK-4650","FILE":"3684614","TLE_LINE1":"1 53611U 22104Z   22342.54772439  .00000977  00000-0  79479-4 0  9992","REV_AT_EPOCH":"1653","CLASSIFICATION_TYPE":"U","DECAY_DATE":null,"MEAN_MOTION":"15.08833401","APOAPSIS":"541.073","ARG_OF_PERICENTER":"58.8883","TIME_SYSTEM":"UTC","BSTAR":"0.00007947900000","RCS_SIZE":"LARGE","TLE_LINE2":"2 53611  53.2166 163.6266 0001890  58.8883 301.2295 15.08833401 16539","PERIAPSIS":"538.458","EPOCH":"2022-12-08T13:08:43.387296","MEAN_ANOMALY":"301.2295","LAUNCH_DATE":"2022-08-28","EPHEMERIS_TYPE":"0","OBJECT_TYPE":"PAYLOAD","NORAD_CAT_ID":"53611","CENTER_NAME":"EARTH","COUNTRY_CODE":"US","SEMIMAJOR_AXIS":"6917.901","INCLINATION":"53.2166","MEAN_ELEMENT_THEORY":"SGP4","RA_OF_ASC_NODE":"163.6266","PERIOD":"95.438","GP_ID":"219778835","REF_FRAME":"TEME","MEAN_MOTION_DOT":"0.00000977"},{"REF_FRAME":"TEME","MEAN_MOTION_DOT":"-0.00000105","GP_ID":"219812231","CENTER_NAME":"EARTH","INCLINATION":"53.2165","SEMIMAJOR_AXIS":"6917.869","COUNTRY_CODE":"US","PERIOD":"95.437","RA_OF_ASC_NODE":"162.3474","MEAN_ELEMENT_THEORY":"SGP4","MEAN_ANOMALY":"309.4124","PERIAPSIS":"538.144","EPOCH":"2022-12-08T19:09:02.085120","EPHEMERIS_TYPE":"0","LAUNCH_DATE":"2022-08-28","OBJECT_TYPE":"PAYLOAD","NORAD_CAT_ID":"53612","ARG_OF_PERICENTER":"50.7072","APOAPSIS":"541.324","TIME_SYSTEM":"UTC","BSTAR":"0.00001149000000","TLE_LINE2":"2 53612  53.2165 162.3474 0002298  50.7072 309.4124 15.08843722 16459","RCS_SIZE":"LARGE","TLE_LINE1":"1 53612U 22104AA  22342.79794080 -.00000105  00000-0  11490-4 0  9999","REV_AT_EPOCH":"1645","DECAY_DATE":null,"CLASSIFICATION_TYPE":"U","MEAN_MOTION":"15.08843722","ECCENTRICITY":"0.00022980","ELEMENT_SET_NO":"999","OBJECT_NAME":"STARLINK-4658","FILE":"3684925","SITE":"AFETR","OBJECT_ID":"2022-104AA","MEAN_MOTION_DDOT":"0.0000000000000"},{"ELEMENT_SET_NO":"999","ECCENTRICITY":"0.00016750","OBJECT_NAME":"STARLINK-4655","FILE":"3684925","SITE":"AFETR","OBJECT_ID":"2022-104AB","MEAN_MOTION_DDOT":"0.0000000000000","APOAPSIS":"540.921","ARG_OF_PERICENTER":"54.8987","TIME_SYSTEM":"UTC","BSTAR":"-0.00002373100000","TLE_LINE2":"2 53613  53.2176 162.3915 0001675  54.8987 305.2162 15.08834573 16450","RCS_SIZE":"LARGE","TLE_LINE1":"1 53613U 22104AB  22342.80531585 -.00000666  00000-0 -23731-4 0  9995","REV_AT_EPOCH":"1645","CLASSIFICATION_TYPE":"U","DECAY_DATE":null,"MEAN_MOTION":"15.08834573","CENTER_NAME":"EARTH","SEMIMAJOR_AXIS":"6917.897","COUNTRY_CODE":"US","INCLINATION":"53.2176","MEAN_ELEMENT_THEORY":"SGP4","PERIOD":"95.438","RA_OF_ASC_NODE":"162.3915","PERIAPSIS":"538.603","EPOCH":"2022-12-08T19:19:39.289440","MEAN_ANOMALY":"305.2162","LAUNCH_DATE":"2022-08-28","EPHEMERIS_TYPE":"0","NORAD_CAT_ID":"53613","OBJECT_TYPE":"PAYLOAD","REF_FRAME":"TEME","MEAN_MOTION_DOT":"-0.00000666","GP_ID":"219811634"},{"OBJECT_ID":"2022-104AE","MEAN_MOTION_DDOT":"0.0000000000000","SITE":"AFETR","FILE":"3684925","ELEMENT_SET_NO":"999","ECCENTRICITY":"0.00017560","OBJECT_NAME":"STARLINK-4605","REV_AT_EPOCH":"1669","DECAY_DATE":null,"CLASSIFICATION_TYPE":"U","MEAN_MOTION":"15.08844901","TLE_LINE1":"1 53616U 22104AE  22342.74091846  .00001675  00000-0  12327-3 0  9999","BSTAR":"0.00012327000000","RCS_SIZE":"LARGE","TLE_LINE2":"2 53616  53.2170 152.5385 0001756  67.8553 292.2626 15.08844901 16694","APOAPSIS":"540.945","ARG_OF_PERICENTER":"67.8553","TIME_SYSTEM":"UTC","LAUNCH_DATE":"2022-08-28","EPHEMERIS_TYPE":"0","OBJECT_TYPE":"PAYLOAD","NORAD_CAT_ID":"53616","EPOCH":"2022-12-08T17:46:55.354944","PERIAPSIS":"538.516","MEAN_ANOMALY":"292.2626","SEMIMAJOR_AXIS":"6917.865","COUNTRY_CODE":"US","INCLINATION":"53.2170","MEAN_ELEMENT_THEORY":"SGP4","RA_OF_ASC_NODE":"152.5385","PERIOD":"95.437","CENTER_NAME":"EARTH","GP_ID":"219811226","MEAN_MOTION_DOT":"0.00001675","REF_FRAME":"TEME"},{"GP_ID":"219811430","REF_FRAME":"TEME","MEAN_MOTION_DOT":"-0.00000647","PERIAPSIS":"538.427","EPOCH":"2022-12-08T19:03:43.934400","MEAN_ANOMALY":"306.2669","EPHEMERIS_TYPE":"0","LAUNCH_DATE":"2022-08-28","NORAD_CAT_ID":"53617","OBJECT_TYPE":"PAYLOAD","CENTER_NAME":"EARTH","INCLINATION":"53.2171","COUNTRY_CODE":"US","SEMIMAJOR_AXIS":"6917.871","PERIOD":"95.437","RA_OF_ASC_NODE":"162.3289","MEAN_ELEMENT_THEORY":"SGP4","TLE_LINE1":"1 53617U 22104AF  22342.79425850 -.00000647  00000-0 -22564-4 0  9996","REV_AT_EPOCH":"1645","DECAY_DATE":null,"MEAN_MOTION":"15.08843220","CLASSIFICATION_TYPE":"U","ARG_OF_PERICENTER":"53.8498","APOAPSIS":"541.044","TIME_SYSTEM":"UTC","BSTAR":"-0.00002256400000","TLE_LINE2":"2 53617  53.2171 162.3289 0001892  53.8498 306.2669 15.08843220 16452","RCS_SIZE":"LARGE","SITE":"AFETR","OBJECT_ID":"2022-104AF","MEAN_MOTION_DDOT":"0.0000000000000","ECCENTRICITY":"0.00018920","ELEMENT_SET_NO":"999","OBJECT_NAME":"STARLINK-4601","FILE":"3684925"},{"OBJECT_ID":"2022-104AG","MEAN_MOTION_DDOT":"0.0000000000000","SITE":"AFETR","FILE":"3684925","ECCENTRICITY":"0.00019090","ELEMENT_SET_NO":"999","OBJECT_NAME":"STARLINK-4604","REV_AT_EPOCH":"1587","CLASSIFICATION_TYPE":"U","DECAY_DATE":null,"MEAN_MOTION":"15.08818341","TLE_LINE1":"1 53618U 22104AG  22342.78322485 -.00003599  00000-0 -20828-3 0  9995","BSTAR":"-0.00020828000000","TLE_LINE2":"2 53618  53.2176 162.2640 0001909 334.9026  25.1873 15.08818341 15872","RCS_SIZE":"LARGE","ARG_OF_PERICENTER":"334.9026","APOAPSIS":"541.132","TIME_SYSTEM":"UTC","EPHEMERIS_TYPE":"0","LAUNCH_DATE":"2022-08-28","OBJECT_TYPE":"PAYLOAD","NORAD_CAT_ID":"53618","PERIAPSIS":"538.491","MEAN_ANOMALY":"25.1873","EPOCH":"2022-12-08T18:47:50.627040","INCLINATION":"53.2176","SEMIMAJOR_AXIS":"6917.947","COUNTRY_CODE":"US","RA_OF_ASC_NODE":"162.2640","PERIOD":"95.439","MEAN_ELEMENT_THEORY":"SGP4","CENTER_NAME":"EARTH","GP_ID":"219811838","MEAN_MOTION_DOT":"-0.00003599","REF_FRAME":"TEME"},{"BSTAR":"0.00010290000000","RCS_SIZE":"LARGE","TLE_LINE2":"2 53619  53.2168 162.3003 0001776  56.8333 303.2829 15.08844175 16451","APOAPSIS":"540.961","ARG_OF_PERICENTER":"56.8333","TIME_SYSTEM":"UTC","REV_AT_EPOCH":"1645","CLASSIFICATION_TYPE":"U","DECAY_DATE":null,"MEAN_MOTION":"15.08844175","TLE_LINE1":"1 53619U 22104AH  22342.79055883  .00001350  00000-0  10290-3 0  9995","FILE":"3684925","ELEMENT_SET_NO":"999","ECCENTRICITY":"0.00017760","OBJECT_NAME":"STARLINK-4609","OBJECT_ID":"2022-104AH","MEAN_MOTION_DDOT":"0.0000000000000","SITE":"AFETR","MEAN_MOTION_DOT":"0.00001350","REF_FRAME":"TEME","GP_ID":"219812028","SEMIMAJOR_AXIS":"6917.868","COUNTRY_CODE":"US","INCLINATION":"53.2168","MEAN_ELEMENT_THEORY":"SGP4","PERIOD":"95.437","RA_OF_ASC_NODE":"162.3003","CENTER_NAME":"EARTH","LAUNCH_DATE":"2022-08-28","EPHEMERIS_TYPE":"0","OBJECT_TYPE":"PAYLOAD","NORAD_CAT_ID":"53619","MEAN_ANOMALY":"303.2829","PERIAPSIS":"538.504","EPOCH":"2022-12-08T18:58:24.282912"}];
